NORAD_CAT_ID,OBJECT_NAME,OBJECT_TYPE,EPOCH,MEAN_MOTION,ECCENTRICITY,INCLINATION,RA_OF_ASC_NODE,ARG_OF_PERICENTER,MEAN_ANOMALY,BSTAR,MEAN_MOTION_DOT,MEAN_MOTION_DDOT,TLE_LINE0,TLE_LINE1,TLE_LINE2,SEMIMAJOR_AXIS,PERIOD,APOGEE,PERIGEE,DECAYED
50821.0,STARLINK-3346,PAYLOAD,2022-07-07 12:09:53,15.08849766,0.0002281,53.2168,69.9405,67.6681,292.4553,0.00032426,4.878e-05,0.0,0 STARLINK-3346,1 50821U 22001U   22188.50687419  .00004878  00000-0  32426-3 0  9999,2 50821  53.2168  69.9405 0002281  67.6681 292.4553 15.08849766 27938,6917.851,95.437,541.294,538.138,0.0
50821.0,STARLINK-3346,PAYLOAD,2022-07-07 20:06:49,15.08863904,0.0002273,53.2167,68.4535,68.4124,291.711,0.00053535,8.248e-05,0.0,0 STARLINK-3346,1 50821U 22001U   22188.83806845  .00008248  00000-0  53535-3 0  9990,2 50821  53.2167  68.4535 0002273  68.4124 291.7110 15.08863904 29233,6917.807,95.436,541.245,538.1,0.0
50821.0,STARLINK-3346,PAYLOAD,2022-07-08 12:00:39,15.08859035,0.0002288,53.2168,65.4799,69.2895,290.8342,0.00023409,3.441e-05,0.0,0 STARLINK-3346,1 50821U 22001U   22189.50046230  .00003441  00000-0  23409-3 0  9996,2 50821  53.2168  65.4799 0002288  69.2895 290.8342 15.08859035 29331,6917.821999999999,95.436,541.27,538.104,0.0
50821.0,STARLINK-3346,PAYLOAD,2022-07-08 19:57:34,15.08869218,0.0002231,53.2167,63.993,70.7109,289.4124,0.00036679,5.559e-05,0.0,0 STARLINK-3346,1 50821U 22001U   22189.83165401  .00005559  00000-0  36679-3 0  9999,2 50821  53.2167  63.9930 0002231  70.7109 289.4124 15.08869218 28136,6917.791,95.436,541.1990000000002,538.113,0.0
50821.0,STARLINK-3346,PAYLOAD,2022-07-09 11:51:26,15.08853314,0.0002188,53.2168,61.0199,70.4572,289.6657,-5.3467e-05,-1.14e-05,0.0,0 STARLINK-3346,1 50821U 22001U   22190.49405105 -.00001140  00000-0 -53467-4 0  9990,2 50821  53.2168  61.0199 0002188  70.4572 289.6657 15.08853314 28239,6917.84,95.437,541.2180000000002,538.191,0.0
50821.0,STARLINK-3346,PAYLOAD,2022-07-09 15:02:12,15.08847951,0.0002169,53.2168,60.4256,69.3083,290.8141,-0.00016447,-2.906e-05,0.0,0 STARLINK-3346,1 50821U 22001U   22190.62653190 -.00002906  00000-0 -16447-3 0  9991,2 50821  53.2168  60.4256 0002169  69.3083 290.8141 15.08847951 29502,6917.856,95.437,541.222,538.221,0.0
50821.0,STARLINK-3346,PAYLOAD,2022-07-09 16:37:36,15.08834151,0.0002162,53.217,60.1271,66.1931,293.9287,-0.00029268,-4.943e-05,0.0,0 STARLINK-3346,1 50821U 22001U   22190.69278096 -.00004943  00000-0 -29268-3 0  9994,2 50821  53.2170  60.1271 0002162  66.1931 293.9287 15.08834151 28264,6917.898,95.438,541.259,538.268,0.0
50821.0,STARLINK-3346,PAYLOAD,2022-07-10 00:34:32,15.08816943,0.000187,53.2174,58.6406,81.1294,278.991,-0.00048398,-7.978e-05,0.0,0 STARLINK-3346,1 50821U 22001U   22191.02399133 -.00007978  00000-0 -48398-3 0  9994,2 50821  53.2174  58.6406 0001870  81.1294 278.9910 15.08816943 29563,6917.951,95.439,541.11,538.5219999999998,0.0
50821.0,STARLINK-3346,PAYLOAD,2022-07-10 11:42:15,15.08814899,0.0001853,53.2173,56.5606,61.6254,298.4925,-0.00037846,-6.302e-05,0.0,0 STARLINK-3346,1 50821U 22001U   22191.48767593 -.00006302  00000-0 -37846-3 0  9999,2 50821  53.2173  56.5606 0001853  61.6254 298.4925 15.08814899 28381,6917.956999999999,95.439,541.104,538.54,0.0
50821.0,STARLINK-3346,PAYLOAD,2022-07-10 18:03:47,15.08821586,0.000183,53.2167,55.3707,62.8017,297.3162,9.2448e-05,1.183e-05,0.0,0 STARLINK-3346,1 50821U 22001U   22191.75263846  .00001183  00000-0  92448-4 0  9991,2 50821  53.2167  55.3707 0001830  62.8017 297.3162 15.08821586 29673,6917.937,95.439,541.068,538.536,0.0
50821.0,STARLINK-3346,PAYLOAD,2022-07-10 21:14:34,15.0881772,0.0001795,53.2166,54.7759,63.3012,296.8164,0.00044797,6.844e-05,0.0,0 STARLINK-3346,1 50821U 22001U   22191.88512304  .00006844  00000-0  44797-3 0  9993,2 50821  53.2166  54.7759 0001795  63.3012 296.8164 15.08817720 28448,6917.948,95.439,541.055,538.572,0.0
50821.0,STARLINK-3346,PAYLOAD,2022-07-11 11:33:03,15.08831798,0.0001702,53.2169,52.1,59.8201,300.2959,0.00092469,0.00014456,0.0,0 STARLINK-3346,1 50821U 22001U   22192.48129173  .00014456  00000-0  92469-3 0  9995,2 50821  53.2169  52.1000 0001702  59.8201 300.2959 15.08831798 28533,6917.905,95.438,540.948,538.5930000000002,0.0
50821.0,STARLINK-3346,PAYLOAD,2022-07-11 21:05:22,15.08848744,0.0001694,53.2168,50.3155,61.0353,299.0809,0.0011212,0.00017605,0.0,0 STARLINK-3346,1 50821U 22001U   22192.87873102  .00017605  00000-0  11212-2 0  9991,2 50821  53.2168  50.3155 0001694  61.0353 299.0809 15.08848744 28590,6917.854,95.437,540.891,538.547,0.0
50821.0,STARLINK-3346,PAYLOAD,2022-07-12 00:16:08,15.08852863,0.0001685,53.2168,49.7206,61.327,298.7891,0.0011407,0.00017919,0.0,0 STARLINK-3346,1 50821U 22001U   22193.01121026  .00017919  00000-0  11407-2 0  9993,2 50821  53.2168  49.7206 0001685  61.3270 298.7891 15.08852863 28617,6917.840999999999,95.437,540.872,538.54,0.0
50821.0,STARLINK-3346,PAYLOAD,2022-07-12 19:20:45,15.08876827,0.00017,53.2168,46.1517,62.32,297.7964,0.0011035,0.00017336,0.0,0 STARLINK-3346,1 50821U 22001U   22193.80607775  .00017336  00000-0  11035-2 0  9990,2 50821  53.2168  46.1517 0001700  62.3200 297.7964 15.08876827 28734,6917.768,95.435,540.809,538.457,0.0
50821.0,STARLINK-3346,PAYLOAD,2022-07-13 20:46:54,15.0884378,0.0001447,53.217,41.393,58.403,301.7103,-0.00026437,-4.493e-05,0.0,0 STARLINK-3346,1 50821U 22001U   22194.86590739 -.00004493  00000-0 -26437-3 0  9993,2 50821  53.2170  41.3930 0001447  58.4030 301.7103 15.08843780 30149,6917.869000000002,95.437,540.735,538.7330000000002,0.0
50821.0,STARLINK-3346,PAYLOAD,2022-07-14 06:19:13,15.08837283,0.0001434,53.2172,39.609,56.5012,303.6117,0.00036422,5.513e-05,0.0,0 STARLINK-3346,1 50821U 22001U   22195.26335049  .00005513  00000-0  36422-3 0  9996,2 50821  53.2172  39.6090 0001434  56.5012 303.6117 15.08837283 28956,6917.889,95.438,540.746,538.762,0.0
50821.0,STARLINK-3346,PAYLOAD,2022-07-14 20:37:42,15.08827909,0.0001475,53.2171,36.9333,60.7682,299.3458,-0.00019623,-3.409e-05,0.0,0 STARLINK-3346,1 50821U 22001U   22195.85951747 -.00003409  00000-0 -19623-3 0  9998,2 50821  53.2171  36.9333 0001475  60.7682 299.3458 15.08827909 30293,6917.917,95.438,540.803,538.762,0.0
50821.0,STARLINK-3346,PAYLOAD,2022-07-15 14:06:57,15.08829609,0.0001509,53.2181,33.662,58.8679,301.2461,8.630700000000001e-05,1.086e-05,0.0,0 STARLINK-3346,1 50821U 22001U   22196.58816358  .00001086  00000-0  86307-4 0  9998,2 50821  53.2181  33.6620 0001509  58.8679 301.2461 15.08829609 29158,6917.9119999999975,95.438,540.821,538.7330000000002,0.0
50821.0,STARLINK-3346,PAYLOAD,2022-07-15 20:28:29,15.08838238,0.0001520999999999,53.2181,32.4725,58.5206,301.5935,0.0001544,2.17e-05,0.0,0 STARLINK-3346,1 50821U 22001U   22196.85311762  .00002170  00000-0  15440-3 0  9991,2 50821  53.2181  32.4725 0001521  58.5206 301.5935 15.08838238 30449,6917.886,95.438,540.803,538.6990000000002,0.0
50821.0,STARLINK-3346,PAYLOAD,2022-07-16 12:22:20,15.08839504,0.0001565999999999,53.2172,29.4987,63.7373,296.378,0.00021514,3.138e-05,0.0,0 STARLINK-3346,1 50821U 22001U   22197.51551884  .00003138  00000-0  21514-3 0  9990,2 50821  53.2172  29.4987 0001566  63.7373 296.3780 15.08839504 29294,6917.882,95.438,540.83,538.664,0.0
50821.0,STARLINK-3346,PAYLOAD,2022-07-16 20:19:16,15.08852796,0.0001549,53.2169,28.0117,64.067,296.0482,0.00034561,5.219e-05,0.0,0 STARLINK-3346,1 50821U 22001U   22197.84671403  .00005219  00000-0  34561-3 0  9994,2 50821  53.2169  28.0117 0001549  64.0670 296.0482 15.08852796 29345,6917.840999999999,95.437,540.778,538.635,0.0
50821.0,STARLINK-3346,PAYLOAD,2022-07-17 07:26:57,15.08855902,0.0001615,53.2167,25.9302,62.417,297.6986,0.0003007,4.503e-05,0.0,0 STARLINK-3346,1 50821U 22001U   22198.31039000  .00004503  00000-0  30070-3 0  9994,2 50821  53.2167  25.9302 0001615  62.4170 297.6986 15.08855902 29412,6917.831999999999,95.437,540.814,538.58,0.0
50821.0,STARLINK-3346,PAYLOAD,2022-07-17 18:34:39,15.08846338,0.0001538,53.2164,23.8486,67.4757,292.6398,0.00028156,4.197e-05,0.0,0 STARLINK-3346,1 50821U 22001U   22198.77406988  .00004197  00000-0  28156-3 0  9998,2 50821  53.2164  23.8486 0001538  67.4757 292.6398 15.08846338 30731,6917.861,95.437,540.79,538.6619999999998,0.0
50821.0,STARLINK-3346,PAYLOAD,2022-07-18 05:42:21,15.08831534,0.0001364,53.2166,21.767,68.9747,291.1391,0.00018134,2.599e-05,0.0,0 STARLINK-3346,1 50821U 22001U   22199.23775358  .00002599  00000-0  18134-3 0  9999,2 50821  53.2166  21.7670 0001364  68.9747 291.1391 15.08831534 30804,6917.906,95.438,540.715,538.828,0.0
50821.0,STARLINK-3346,PAYLOAD,2022-07-18 12:03:54,15.08836314,0.0001455,53.217,20.5775,65.0608,295.0535,0.0001152,1.546e-05,0.0,0 STARLINK-3346,1 50821U 22001U   22199.50271442  .00001546  00000-0  11520-3 0  9997,2 50821  53.2170  20.5775 0001455  65.0608 295.0535 15.08836314 29595,6917.892,95.438,540.763,538.75,0.0
50821.0,STARLINK-3346,PAYLOAD,2022-07-18 18:25:26,15.08845933,0.00016,53.2166,19.3892,67.4231,292.693,0.00018427,2.646e-05,0.0,0 STARLINK-3346,1 50821U 22001U   22199.76767236  .00002646  00000-0  18427-3 0  9991,2 50821  53.2166  19.3892 0001600  67.4231 292.6930 15.08845933 30889,6917.861999999999,95.437,540.8340000000002,538.62,0.0
50821.0,STARLINK-3346,PAYLOAD,2022-07-19 11:54:41,15.08845349,0.0001675,53.2169,16.1179,61.1721,298.9439,0.00019652,2.841e-05,0.0,0 STARLINK-3346,1 50821U 22001U   22200.49631366  .00002841  00000-0  19652-3 0  9996,2 50821  53.2169  16.1179 0001675  61.1721 298.9439 15.08845349 29749,6917.864000000001,95.437,540.888,538.57,0.0
50821.0,STARLINK-3346,PAYLOAD,2022-07-19 18:16:13,15.0885218,0.0001631999999999,53.217,14.9278,63.6522,296.4637,0.00036561,5.537e-05,0.0,0 STARLINK-3346,1 50821U 22001U   22200.76127112  .00005537  00000-0  36561-3 0  9998,2 50821  53.2170  14.9278 0001632  63.6522 296.4637 15.08852180 29784,6917.843000000003,95.437,540.837,538.5790000000002,0.0
